OBJECT_NAME,OBJECT_ID,EPOCH,MEAN_MOTION,ECCENTRICITY,INCLINATION,RA_OF_ASC_NODE,ARG_OF_PERICENTER,MEAN_ANOMALY,EPHEMERIS_TYPE,CLASSIFICATION_TYPE,NORAD_CAT_ID,ELEMENT_SET_NO,REV_AT_EPOCH,BSTAR,MEAN_MOTION_DOT,MEAN_MOTION_DDOT
SKYSAT-C4,2016-058B,2026-06-07T13:46:27.982272,15.48287554,.0000845,96.9183,180.7503,90.4356,269.6993,0,U,41771,999,54398,.31411E-3,.16506E-3,0
SKYSAT-C5,2016-058C,2026-06-07T15:32:52.668384,15.34334043,.0002166,97.0476,199.7146,6.9620,353.1654,0,U,41772,999,54228,.24793E-3,.8169E-4,0
SKYSAT-C2,2016-058D,2026-06-07T18:49:59.719872,15.41856652,.0005149,97.0174,181.2351,90.7101,269.4737,0,U,41773,999,54360,.29712E-3,.12534E-3,0
SKYSAT-C3,2016-058E,2026-06-07T14:28:20.447616,15.52129746,.0001946,96.9014,189.8219,82.0206,278.1269,0,U,41774,999,54462,.37542E-3,.22632E-3,0
ALSAT-1B,2016-059C,2026-06-07T19:02:17.048832,14.72267487,.0007701,97.7756,167.9628,256.0064,104.0288,0,U,41785,999,51919,.73649E-4,.418E-5,0
PATHFINDER 1,2016-059E,2026-06-07T19:06:37.738368,14.67652886,.0027186,97.8166,158.4963,234.5535,125.3132,0,U,41787,999,51833,.12543E-3,.67E-5,0
SCATSAT 1,2016-059H,2026-06-07T17:52:45.847776,14.79506944,.0053289,98.1194,222.4136,278.7312,80.7865,0,U,41790,999,10019,.16779E-3,.1227E-4,0
GOKTURK 1A,2016-073A,2026-06-07T19:20:35.503008,14.62768012,.0001466,98.1256,53.6271,77.9602,282.1764,0,U,41875,999,50745,.84773E-4,.386E-5,0
RESOURCESAT-2A,2016-074A,2026-06-07T20:25:03.159264,14.21612599,.0003343,98.7520,232.4313,100.5971,259.5583,0,U,41877,999,49297,-.11146E-4,-.69E-6,0
CARTOSAT-2D,2017-008A,2026-06-07T19:20:36.372192,15.19261118,.0003488,97.4109,218.2865,276.1669,83.9168,0,U,41948,999,51615,.16985E-3,.3513E-4,0
SENTINEL-2B,2017-013A,2026-06-07T20:05:03.909984,14.30814058,.0001212,98.5686,233.7430,84.6775,275.4546,0,U,42063,999,48330,.33843E-4,.45E-6,0
CARTOSAT-2E,2017-036C,2026-06-07T19:45:56.243232,15.19250345,.0003181,97.4275,218.7802,0.5663,359.5575,0,U,42767,999,49672,.21037E-3,.4366E-4,0
FORMOSAT-5,2017-049A,2026-06-07T17:49:41.397600,14.50895559,.0012658,98.2253,234.2623,110.3522,249.9034,0,U,42920,999,46530,.63308E-4,.206E-5,0
SENTINEL-5P,2017-064A,2026-06-07T18:09:43.370208,14.19517490,.0000963,98.7923,100.9552,81.5003,278.6282,0,U,42969,999,44822,.51865E-4,.65E-6,0
SKYSAT-C11,2017-068A,2026-06-07T16:16:20.006976,15.57402675,.0001048,97.4344,307.0996,88.4759,271.6616,0,U,42987,999,48176,.37874E-3,.2769E-3,0
SKYSAT-C10,2017-068B,2026-06-07T15:23:59.377344,15.34476636,.0001257,97.4495,295.3980,89.9262,270.2125,0,U,42988,999,48089,.28339E-3,.9384E-4,0
SKYSAT-C9,2017-068C,2026-06-07T15:09:07.115040,15.41325697,.0008906,97.4415,296.2317,163.8053,196.3480,0,U,42989,999,48128,.32616E-3,.13533E-3,0
SKYSAT-C8,2017-068D,2026-06-07T15:03:30.924000,15.36788462,.0001572,97.4512,295.1472,98.4427,261.6995,0,U,42990,999,48084,.29721E-3,.10605E-3,0
SKYSAT-C7,2017-068E,2026-06-07T08:38:47.923296,15.36730334,.0006944,97.4524,295.8656,135.5256,224.6547,0,U,42991,999,48086,.2943E-3,.10487E-3,0
SKYSAT-C6,2017-068F,2026-06-07T14:58:17.253120,15.34045298,.0003867,97.4559,296.1371,163.2327,196.9044,0,U,42992,999,48085,.29754E-3,.9725E-4,0
CARTOSAT-2F,2018-004A,2026-06-07T20:31:47.531136,15.19299756,.0000115,97.4785,218.5815,15.8912,344.2326,0,U,43111,999,46591,.15127E-3,.3124E-4,0
GAOFEN-1 02,2018-031A,2026-06-07T21:04:52.438080,14.76470065,.0004369,98.0524,221.4312,54.4239,305.7377,0,U,43259,999,44132,.17432E-3,.1162E-4,0
GAOFEN-1 03,2018-031B,2026-06-07T20:33:26.447904,14.76456709,.0003826,98.0525,221.2687,97.3967,262.7677,0,U,43260,999,44131,.13901E-3,.916E-5,0
GAOFEN-1 04,2018-031D,2026-06-07T19:58:29.348832,14.76466484,.0002217,98.0526,221.4341,90.8891,269.2573,0,U,43262,999,44130,.12583E-3,.824E-5,0
SENTINEL-3B,2018-039A,2026-06-07T17:19:55.521696,14.26739261,.0000878,98.6250,226.3900,76.5790,283.5488,0,U,43437,999,42277,.72334E-4,.131E-5,0
GAOFEN-5 01,2018-043A,2026-06-07T16:14:10.025952,14.60599287,.0003005,98.4565,130.0634,100.5787,259.5751,0,U,43461,999,43030,.99274E-4,.433E-5,0
GAOFEN-6,2018-048A,2026-06-07T20:31:28.860960,14.76620761,.0011282,97.7757,221.8816,199.0312,161.0479,0,U,43484,999,43201,.57379E-4,.352E-5,0
GAOFEN-11 01,2018-063A,2026-06-07T20:14:25.263744,15.55016315,.0004181,97.1294,225.7503,30.1468,330.0026,0,U,43585,999,43889,.18965E-3,.12631E-3,0
ICESAT-2,2018-070A,2026-06-07T15:51:07.053984,15.28247161,.0005197,92.0068,288.4066,120.5374,239.6389,0,U,43613,999,43100,.35964E-3,.9899E-4,0
HYSIS,2018-096A,2026-06-07T19:19:51.717216,14.78676340,.000163,97.9836,225.6267,111.0876,249.0509,0,U,43719,999,40603,.1696E-3,.1191E-4,0
KAZSTSAT,2018-099AB,2026-06-07T14:58:30.241632,14.99840967,.0007776,97.4264,190.9876,94.5445,265.6667,0,U,43783,999,40987,.12585E-3,.1503E-4,0
