SKYSAT-C4               
1 41771U 16058B   26158.57393498  .00016506  00000+0  31411-3 0  9990
2 41771  96.9183 180.7503 0000845  90.4356 269.6993 15.48287554543988
SKYSAT-C5               
1 41772U 16058C   26158.64783181  .00008169  00000+0  24793-3 0  9992
2 41772  97.0476 199.7146 0002166   6.9620 353.1654 15.34334043542289
SKYSAT-C2               
1 41773U 16058D   26158.78471898  .00012534  00000+0  29712-3 0  9994
2 41773  97.0174 181.2351 0005149  90.7101 269.4737 15.41856652543609
SKYSAT-C3               
1 41774U 16058E   26158.60301444  .00022632  00000+0  37542-3 0  9995
2 41774  96.9014 189.8219 0001946  82.0206 278.1269 15.52129746544628
ALSAT-1B                
1 41785U 16059C   26158.79325288  .00000418  00000+0  73649-4 0  9997
2 41785  97.7756 167.9628 0007701 256.0064 104.0288 14.72267487519191
PATHFINDER 1            
1 41787U 16059E   26158.79627012  .00000670  00000+0  12543-3 0  9994
2 41787  97.8166 158.4963 0027186 234.5535 125.3132 14.67652886518333
SCATSAT 1               
1 41790U 16059H   26158.74497509  .00001227  00000+0  16779-3 0  9993
2 41790  98.1194 222.4136 0053289 278.7312  80.7865 14.79506944100196
GOKTURK 1A              
1 41875U 16073A   26158.80596647  .00000386  00000+0  84773-4 0  9998
2 41875  98.1256  53.6271 0001466  77.9602 282.1764 14.62768012507458
RESOURCESAT-2A          
1 41877U 16074A   26158.85073101 -.00000069  00000+0 -11146-4 0  9995
2 41877  98.7520 232.4313 0003343 100.5971 259.5583 14.21612599492972
CARTOSAT-2D             
1 41948U 17008A   26158.80597653  .00003513  00000+0  16985-3 0  9990
2 41948  97.4109 218.2865 0003488 276.1669  83.9168 15.19261118516158
SENTINEL-2B             
1 42063U 17013A   26158.83685081  .00000045  00000+0  33843-4 0  9991
2 42063  98.5686 233.7430 0001212  84.6775 275.4546 14.30814058483309
CARTOSAT-2E             
1 42767U 17036C   26158.82356763  .00004366  00000+0  21037-3 0  9999
2 42767  97.4275 218.7802 0003181   0.5663 359.5575 15.19250345496725
FORMOSAT-5              
1 42920U 17049A   26158.74284025  .00000206  00000+0  63308-4 0  9993
2 42920  98.2253 234.2623 0012658 110.3522 249.9034 14.50895559465306
SENTINEL-5P             
1 42969U 17064A   26158.75675197  .00000065  00000+0  51865-4 0  9996
2 42969  98.7923 100.9552 0000963  81.5003 278.6282 14.19517490448223
SKYSAT-C11              
1 42987U 17068A   26158.67800934  .00027690  00000+0  37874-3 0  9996
2 42987  97.4344 307.0996 0001048  88.4759 271.6616 15.57402675481768
SKYSAT-C10              
1 42988U 17068B   26158.64165946  .00009384  00000+0  28339-3 0  9997
2 42988  97.4495 295.3980 0001257  89.9262 270.2125 15.34476636480891
SKYSAT-C9               
1 42989U 17068C   26158.63133235  .00013533  00000+0  32616-3 0  9997
2 42989  97.4415 296.2317 0008906 163.8053 196.3480 15.41325697481280
SKYSAT-C8               
1 42990U 17068D   26158.62744125  .00010605  00000+0  29721-3 0  9994
2 42990  97.4512 295.1472 0001572  98.4427 261.6995 15.36788462480845
SKYSAT-C7               
1 42991U 17068E   26158.36027689  .00010487  00000+0  29430-3 0  9990
2 42991  97.4524 295.8656 0006944 135.5256 224.6547 15.36730334480860
SKYSAT-C6               
1 42992U 17068F   26158.62381080  .00009725  00000+0  29754-3 0  9990
2 42992  97.4559 296.1371 0003867 163.2327 196.9044 15.34045298480853
CARTOSAT-2F             
1 43111U 18004A   26158.85541124  .00003124  00000+0  15127-3 0  9993
2 43111  97.4785 218.5815 0000115  15.8912 344.2326 15.19299756465918
GAOFEN-1 02             
1 43259U 18031A   26158.87838470  .00001162  00000+0  17432-3 0  9992
2 43259  98.0524 221.4312 0004369  54.4239 305.7377 14.76470065441323
GAOFEN-1 03             
1 43260U 18031B   26158.85655611  .00000916  00000+0  13901-3 0  9999
2 43260  98.0525 221.2687 0003826  97.3967 262.7677 14.76456709441313
GAOFEN-1 04             
1 43262U 18031D   26158.83228413  .00000824  00000+0  12583-3 0  9998
2 43262  98.0526 221.4341 0002217  90.8891 269.2573 14.76466484441309
SENTINEL-3B             
1 43437U 18039A   26158.72217039  .00000131  00000+0  72334-4 0  9992
2 43437  98.6250 226.3900 0000878  76.5790 283.5488 14.26739261422773
GAOFEN-5 01             
1 43461U 18043A   26158.67650493  .00000433  00000+0  99274-4 0  9990
2 43461  98.4565 130.0634 0003005 100.5787 259.5751 14.60599287430305
GAOFEN-6                
1 43484U 18048A   26158.85519515  .00000352  00000+0  57379-4 0  9999
2 43484  97.7757 221.8816 0011282 199.0312 161.0479 14.76620761432012
GAOFEN-11 01            
1 43585U 18063A   26158.84334796  .00012631  00000+0  18965-3 0  9993
2 43585  97.1294 225.7503 0004181  30.1468 330.0026 15.55016315438897
ICESAT-2                
1 43613U 18070A   26158.66049831  .00009899  00000+0  35964-3 0  9996
2 43613  92.0068 288.4066 0005197 120.5374 239.6389 15.28247161431007
HYSIS                   
1 43719U 18096A   26158.80545969  .00001191  00000+0  16960-3 0  9992
2 43719  97.9836 225.6267 0001630 111.0876 249.0509 14.78676340406030
KAZSTSAT                
1 43783U 18099AB  26158.62396113  .00001503  00000+0  12585-3 0  9997
2 43783  97.4264 190.9876 0007776  94.5445 265.6667 14.99840967409870
